OBJECT_NAME,OBJECT_ID,EPOCH,MEAN_MOTION,ECCENTRICITY,INCLINATION,RA_OF_ASC_NODE,ARG_OF_PERICENTER,MEAN_ANOMALY,EPHEMERIS_TYPE,CLASSIFICATION_TYPE,NORAD_CAT_ID,ELEMENT_SET_NO,REV_AT_EPOCH,BSTAR,MEAN_MOTION_DOT,MEAN_MOTION_DDOT
STARLINK-34569,2025-137S,2026-07-19T01:47:34.739232,15.34403066,.00010892,53.1590,84.0382,89.0040,271.1087,0,U,64610,999,6086,.24324296E-3,.7852E-4,0
STARLINK-34494,2025-137T,2026-07-19T01:32:25.655712,15.34405542,.00012476,53.1594,83.9723,77.0075,283.1067,0,U,64611,999,6086,.31058935E-3,.10134E-3,0
STARLINK-34521,2025-137U,2026-07-18T22:56:18.784608,15.30204483,.00013802,53.1590,85.4214,90.7464,269.3695,0,U,64612,999,6083,.48734037E-3,.14104E-3,0
STARLINK-34500,2025-137V,2026-07-19T01:35:27.506976,15.34395284,.00013483,53.1581,83.9847,81.9696,278.1460,0,U,64613,999,6096,.1779419E-3,.5639E-4,0
STARLINK-34440,2025-137W,2026-07-18T23:04:13.492128,15.34397540,.00011119,53.1578,84.7486,75.4844,284.6282,0,U,64614,999,6084,.2119464E-3,.6791E-4,0
STARLINK-34469,2025-137X,2026-07-18T22:36:33.361920,15.30205370,.00012339,53.1599,85.3363,95.3790,264.7351,0,U,64615,999,6083,.5224288E-3,.15148E-3,0
STARLINK-34413,2025-137Y,2026-07-19T01:38:29.214816,15.34400372,.00012849,53.1598,83.9962,91.9092,268.2058,0,U,64616,999,6096,.22520847E-3,.724E-4,0
STARLINK-34417,2025-137Z,2026-07-19T00:15:57.937536,15.34396734,.00014792,53.1591,70.6344,92.0398,268.0774,0,U,64617,999,6114,.17459175E-3,.5526E-4,0
STARLINK-34415,2025-137AA,2026-07-19T01:50:36.127392,15.34411163,.00012243,53.1598,84.0497,96.4738,263.6404,0,U,64618,999,6086,.41613004E-3,.13714E-3,0
STARLINK-34416,2025-137AB,2026-07-18T23:01:12.561888,15.34383203,.00011232,53.1588,84.7342,91.7132,268.4000,0,U,64619,999,6084,.44895024E-3,.14814E-3,0
STARLINK-34414,2025-137AC,2026-07-18T22:58:10.224192,15.34408413,.00011761,53.1592,84.7208,86.3605,273.7533,0,U,64620,999,6084,.44840544E-3,.14808E-3,0
STARLINK-34464,2025-139A,2026-07-19T01:52:13.136448,15.34398028,.00014357,53.1571,234.3931,69.4003,290.7154,0,U,64664,999,6043,.34390112E-3,.1126E-3,0
STARLINK-34555,2025-139B,2026-07-19T01:49:11.113248,15.34391018,.00012106,53.1563,234.3783,68.9073,291.2059,0,U,64665,999,6033,.96140464E-4,.2872E-4,0
STARLINK-34390,2025-139C,2026-07-19T05:42:07.014816,15.34395305,.00009899,53.1564,233.2553,63.9907,296.1197,0,U,64666,999,6052,.36579464E-3,.12001E-3,0
STARLINK-34382,2025-139D,2026-07-18T20:05:00.121344,15.34392304,.00010768,53.1581,237.1450,91.6806,268.4320,0,U,64667,999,6037,.29996767E-3,.977E-4,0
STARLINK-34395,2025-139E,2026-07-19T02:01:17.442624,15.34406113,.00014768,53.1571,234.4298,97.4729,262.6441,0,U,64668,999,6043,.53538353E-3,.17759E-3,0
STARLINK-34394,2025-139F,2026-07-18T19:27:58.283136,15.34391661,.00011666,53.1561,235.5703,67.0467,293.0658,0,U,64669,999,6039,.29063556E-3,.9453E-4,0
STARLINK-34287,2025-139G,2026-07-19T03:07:50.104992,15.34396092,.00010739,53.1553,234.0088,87.1646,272.9479,0,U,64670,999,6044,.31504189E-3,.10281E-3,0
STARLINK-34365,2025-139H,2026-07-18T07:21:48.830688,15.34423398,.00009229,53.1560,238.1068,93.1083,267.0025,0,U,64671,999,6037,.60991411E-3,.20302E-3,0
STARLINK-34442,2025-139J,2026-07-18T19:00:40.498560,15.34392782,.0001118,53.1570,235.4507,76.4171,283.6956,0,U,64672,999,6039,.26688182E-3,.8649E-4,0
STARLINK-34288,2025-139K,2026-07-19T02:58:44.868288,15.34393297,.00010122,53.1558,233.9681,72.9478,287.1635,0,U,64673,999,6044,.25297961E-3,.8179E-4,0
STARLINK-34539,2025-139L,2026-07-19T05:51:11.441952,15.34393926,.00009965,53.1555,233.2915,78.6272,281.4843,0,U,64674,999,6036,.28437907E-3,.9242E-4,0
STARLINK-34590,2025-139M,2026-07-18T07:16:27.242976,15.34375867,.00006481,53.1576,239.5023,82.4747,277.6329,0,U,64675,999,6029,.26525294E-3,.859E-4,0
STARLINK-34573,2025-139N,2026-07-19T05:39:04.016160,15.34390234,.00019197,53.1557,233.2351,126.0563,234.0618,0,U,64676,999,6046,.38277998E-3,.12574E-3,0
STARLINK-34605,2025-139P,2026-07-18T12:38:44.598048,15.30199546,.00012377,53.1565,228.8308,73.2606,286.8530,0,U,64677,999,6046,.19592342E-3,.5448E-4,0
STARLINK-34525,2025-139Q,2026-07-19T02:11:06.125568,15.34390838,.00021842,53.1536,235.8826,91.9054,268.2198,0,U,64678,999,6041,.27073005E-3,.8779E-4,0
STARLINK-34489,2025-139R,2026-07-19T02:04:20.017920,15.34395292,.00013029,53.1557,234.4382,78.2478,281.8671,0,U,64679,999,6043,.27421771E-3,.8898E-4,0
STARLINK-34502,2025-139S,2026-07-19T05:45:07.371360,15.34400150,.0001077,53.1561,233.2621,84.0561,276.0564,0,U,64680,999,6046,.28458394E-3,.9251E-4,0
STARLINK-34553,2025-139T,2026-07-19T05:36:02.238336,15.34406870,.00013962,53.1576,233.2257,81.7628,278.3533,0,U,64681,999,6046,.45649162E-3,.15081E-3,0
STARLINK-34551,2025-139U,2026-07-19T06:00:02.000160,15.34405383,.0000869,53.1589,225.4282,96.6340,306.3160,0,U,64682,999,587,-.78781494E-3,-.26903E-3,0
