[ {"name": "STARLINK-34569", "line1": "1 64610U 25137S   26200.07470763  .00007852  00000+0  24324-3 0  9998", "line2": "2 64610  53.1590  84.0382 0001089  89.0040 271.1087 15.34403066 60864"}, {"name": "STARLINK-34494", "line1": "1 64611U 25137T   26200.06418583  .00010134  00000+0  31059-3 0  9990", "line2": "2 64611  53.1594  83.9723 0001247  77.0075 283.1067 15.34405542 60869"}, {"name": "STARLINK-34521", "line1": "1 64612U 25137U   26199.95577297  .00014104  00000+0  48734-3 0  9993", "line2": "2 64612  53.1590  85.4214 0001380  90.7464 269.3695 15.30204483 60837"}, {"name": "STARLINK-34500", "line1": "1 64613U 25137V   26200.06629059  .00005639  00000+0  17794-3 0  9998", "line2": "2 64613  53.1581  83.9847 0001348  81.9696 278.1460 15.34395284 60962"}, {"name": "STARLINK-34440", "line1": "1 64614U 25137W   26199.96126727  .00006791  00000+0  21195-3 0  9999", "line2": "2 64614  53.1578  84.7486 0001111  75.4844 284.6282 15.34397540 60846"}, {"name": "STARLINK-34469", "line1": "1 64615U 25137X   26199.94205280  .00015148  00000+0  52243-3 0  9994", "line2": "2 64615  53.1599  85.3363 0001233  95.3790 264.7351 15.30205370 60837"}, {"name": "STARLINK-34413", "line1": "1 64616U 25137Y   26200.06839369  .00007240  00000+0  22521-3 0  9992", "line2": "2 64616  53.1598  83.9962 0001284  91.9092 268.2058 15.34400372 60969"}, {"name": "STARLINK-34417", "line1": "1 64617U 25137Z   26200.01108724  .00005526  00000+0  17459-3 0  9991", "line2": "2 64617  53.1591  70.6344 0001479  92.0398 268.0774 15.34396734 61147"}, {"name": "STARLINK-34415", "line1": "1 64618U 25137AA  26200.07680703  .00013714  00000+0  41613-3 0  9997", "line2": "2 64618  53.1598  84.0497 0001224  96.4738 263.6404 15.34411163 60860"}, {"name": "STARLINK-34416", "line1": "1 64619U 25137AB  26199.95917317  .00014814  00000+0  44895-3 0  9993", "line2": "2 64619  53.1588  84.7342 0001123  91.7132 268.4000 15.34383203 60846"}, {"name": "STARLINK-34414", "line1": "1 64620U 25137AC  26199.95706278  .00014808  00000+0  44841-3 0  9991", "line2": "2 64620  53.1592  84.7208 0001176  86.3605 273.7533 15.34408413 60848"}, {"name": "STARLINK-34464", "line1": "1 64664U 25139A   26200.07792982  .00011260  00000+0  34390-3 0  9991", "line2": "2 64664  53.1571 234.3931 0001435  69.4003 290.7154 15.34398028 60434"}, {"name": "STARLINK-34555", "line1": "1 64665U 25139B   26200.07582307  .00002872  00000+0  96140-4 0  9991", "line2": "2 64665  53.1563 234.3783 0001210  68.9073 291.2059 15.34391018 60334"}, {"name": "STARLINK-34390", "line1": "1 64666U 25139C   26200.23758119  .00012001  00000+0  36579-3 0  9990", "line2": "2 64666  53.1564 233.2553 0000989  63.9907 296.1197 15.34395305 60523"}, {"name": "STARLINK-34382", "line1": "1 64667U 25139D   26199.83680696  .00009770  00000+0  29997-3 0  9993", "line2": "2 64667  53.1581 237.1450 0001076  91.6806 268.4320 15.34392304 60375"}, {"name": "STARLINK-34395", "line1": "1 64668U 25139E   26200.08422966  .00017759  00000+0  53538-3 0  9992", "line2": "2 64668  53.1571 234.4298 0001476  97.4729 262.6441 15.34406113 60438"}, {"name": "STARLINK-34394", "line1": "1 64669U 25139F   26199.81109124  .00009453  00000+0  29064-3 0  9998", "line2": "2 64669  53.1561 235.5703 0001166  67.0467 293.0658 15.34391661 60393"}, {"name": "STARLINK-34287", "line1": "1 64670U 25139G   26200.13044103  .00010281  00000+0  31504-3 0  9996", "line2": "2 64670  53.1553 234.0088 0001073  87.1646 272.9479 15.34396092 60441"}, {"name": "STARLINK-34365", "line1": "1 64671U 25139H   26199.30681517  .00020302  00000+0  60991-3 0  9996", "line2": "2 64671  53.1560 238.1068 0000922  93.1083 267.0025 15.34423398 60371"}, {"name": "STARLINK-34442", "line1": "1 64672U 25139J   26199.79213540  .00008649  00000+0  26688-3 0  9992", "line2": "2 64672  53.1570 235.4507 0001118  76.4171 283.6956 15.34392782 60392"}, {"name": "STARLINK-34288", "line1": "1 64673U 25139K   26200.12413042  .00008179  00000+0  25298-3 0  9996", "line2": "2 64673  53.1558 233.9681 0001012  72.9478 287.1635 15.34393297 60440"}, {"name": "STARLINK-34539", "line1": "1 64674U 25139L   26200.24388243  .00009242  00000+0  28438-3 0  9995", "line2": "2 64674  53.1555 233.2915 0000996  78.6272 281.4843 15.34393926 60364"}, {"name": "STARLINK-34590", "line1": "1 64675U 25139M   26199.30309309  .00008590  00000+0  26525-3 0  9996", "line2": "2 64675  53.1576 239.5023 0000648  82.4747 277.6329 15.34375867 60293"}, {"name": "STARLINK-34573", "line1": "1 64676U 25139N   26200.23546315  .00012574  00000+0  38278-3 0  9997", "line2": "2 64676  53.1557 233.2351 0001919 126.0563 234.0618 15.34390234 60463"}, {"name": "STARLINK-34605", "line1": "1 64677U 25139P   26199.52690507  .00005448  00000+0  19592-3 0  9990", "line2": "2 64677  53.1565 228.8308 0001237  73.2606 286.8530 15.30199546 60466"}, {"name": "STARLINK-34525", "line1": "1 64678U 25139Q   26200.09104312  .00008779  00000+0  27073-3 0  9993", "line2": "2 64678  53.1536 235.8826 0002184  91.9054 268.2198 15.34390838 60414"}, {"name": "STARLINK-34489", "line1": "1 64679U 25139R   26200.08634280  .00008898  00000+0  27422-3 0  9995", "line2": "2 64679  53.1557 234.4382 0001302  78.2478 281.8671 15.34395292 60437"}, {"name": "STARLINK-34502", "line1": "1 64680U 25139S   26200.23966865  .00009251  00000+0  28458-3 0  9995", "line2": "2 64680  53.1561 233.2621 0001077  84.0561 276.0564 15.34400150 60464"}, {"name": "STARLINK-34553", "line1": "1 64681U 25139T   26200.23335924  .00015081  00000+0  45649-3 0  9991", "line2": "2 64681  53.1576 233.2257 0001396  81.7628 278.3533 15.34406870 60464"}, {"name": "STARLINK-34551", "line1": "1 64682U 25139U   26200.25002315 -.00026903  00000+0 -78781-3 0  9999", "line2": "2 64682  53.1589 225.4282 0000869  96.6340 306.3160 15.34405383  5870"}]